{"fetched_at":"2026-07-05T17:41:41.697Z","source":"https://celestrak.org/NORAD/elements/gp.php?NAME=SENTINEL&FORMAT=JSON","constellation":"sentinel-5p","records":[{"OBJECT_NAME":"SENTINEL-5P","OBJECT_ID":"2017-064A","EPOCH":"2026-07-04T19:45:38.621088","CLASSIFICATION_TYPE":"U","MEAN_MOTION":14.19522247,"ECCENTRICITY":0.0001088,"INCLINATION":98.7928,"RA_OF_ASC_NODE":127.8294,"ARG_OF_PERICENTER":92.0337,"MEAN_ANOMALY":268.0964,"EPHEMERIS_TYPE":0,"NORAD_CAT_ID":42969,"ELEMENT_SET_NO":999,"REV_AT_EPOCH":45206,"BSTAR":0.000067553483,"MEAN_MOTION_DOT":9.8e-7,"MEAN_MOTION_DDOT":0}]}
